NORAD_CAT_ID,OBJECT_NAME,OBJECT_TYPE,EPOCH,MEAN_MOTION,ECCENTRICITY,INCLINATION,RA_OF_ASC_NODE,ARG_OF_PERICENTER,MEAN_ANOMALY,BSTAR,MEAN_MOTION_DOT,MEAN_MOTION_DDOT,TLE_LINE0,TLE_LINE1,TLE_LINE2,SEMIMAJOR_AXIS,PERIOD,APOGEE,PERIGEE,DECAYED
52103.0,STARLINK-3705,PAYLOAD,2022-07-02 22:00:00,15.0882435,0.0001865,53.2165,0.5334,52.4704,16.0059,0.0032295,0.00051463,0.0,0 STARLINK-3705,1 52103U 22029R   22183.91667824  .00051463  00000-0  32295-2 0  9997,2 52103  53.2165   0.5334 0001865  52.4704  16.0059 15.08824350  1303,6917.928000000001,95.439,541.0830000000002,538.503,0.0
52103.0,STARLINK-3705,PAYLOAD,2022-07-03 14:00:01,15.08868947,0.0001821,53.217,357.5391,60.3271,31.3584,-0.0029325,-0.00046694,0.0,0 STARLINK-3705,1 52103U 22029R   22184.58334491 -.00046694  00000-0 -29325-2 0  9994,2 52103  53.2170 357.5391 0001821  60.3271  31.3584 15.08868947  1309,6917.792,95.436,540.9169999999998,538.3969999999998,0.0
52103.0,STARLINK-3705,PAYLOAD,2022-07-03 22:00:00,15.08821933,0.0001904,53.2168,356.0441,54.1125,49.1838,0.0001807,2.588e-05,0.0,0 STARLINK-3705,1 52103U 22029R   22184.91667824  .00002588  00000-0  18070-3 0  9998,2 52103  53.2168 356.0441 0001904  54.1125  49.1838 15.08821933  1300,6917.936,95.439,541.118,538.4830000000002,0.0
52103.0,STARLINK-3705,PAYLOAD,2022-07-04 14:00:01,15.08834964,0.0001737,53.2171,353.0502,60.539,65.89,-0.0014165,-0.00022758,0.0,0 STARLINK-3705,1 52103U 22029R   22185.58334491 -.00022758  00000-0 -14165-2 0  9996,2 52103  53.2171 353.0502 0001737  60.5390  65.8900 15.08834964  1301,6917.896,95.438,540.962,538.559,0.0
52103.0,STARLINK-3705,PAYLOAD,2022-07-04 22:00:00,15.08804004,0.0001825,53.2166,351.5552,53.7081,84.3101,0.003213,0.00051168,0.0,0 STARLINK-3705,1 52103U 22029R   22185.91667824  .00051168  00000-0  32130-2 0  9999,2 52103  53.2166 351.5552 0001825  53.7081  84.3101 15.08804004  1303,6917.99,95.44,541.118,538.5930000000002,0.0
52103.0,STARLINK-3705,PAYLOAD,2022-07-05 06:00:00,15.08820074,0.0001652,53.2167,350.0572,60.2338,89.3652,0.0016027,0.00025297,0.0,0 STARLINK-3705,1 52103U 22029R   22186.25001157  .00025297  00000-0  16027-2 0  9999,2 52103  53.2167 350.0572 0001652  60.2338  89.3652 15.08820074 17966,6917.941,95.439,540.9490000000002,538.663,0.0
52103.0,STARLINK-3705,PAYLOAD,2022-07-05 14:00:01,15.08855472,0.0001716,53.2168,348.5615,61.4538,99.7224,-0.0014235,-0.00022881,0.0,0 STARLINK-3705,1 52103U 22029R   22186.58334491 -.00022881  00000-0 -14235-2 0  9992,2 52103  53.2168 348.5615 0001716  61.4538  99.7224 15.08855472  1304,6917.833000000001,95.437,540.885,538.511,0.0
52103.0,STARLINK-3705,PAYLOAD,2022-07-05 22:00:00,15.08821813,0.0001803,53.2161,347.0663,55.157,117.624,0.0028618,0.0004553,0.0,0 STARLINK-3705,1 52103U 22029R   22186.91667824  .00045530  00000-0  28618-2 0  9992,2 52103  53.2161 347.0663 0001803  55.1570 117.6240 15.08821813  1307,6917.936,95.439,541.048,538.554,0.0
52103.0,STARLINK-3705,PAYLOAD,2022-07-06 06:00:00,15.08837103,0.0001621,53.2161,345.5682,61.5551,122.8244,0.00073164,0.00011374,0.0,0 STARLINK-3705,1 52103U 22029R   22187.25001157  .00011374  00000-0  73164-3 0  9997,2 52103  53.2161 345.5682 0001621  61.5551 122.8244 15.08837103 18117,6917.889,95.438,540.876,538.633,0.0
52103.0,STARLINK-3705,PAYLOAD,2022-07-06 14:00:01,15.08849315,0.0001638,53.2162,344.0727,61.1256,134.8486,-0.0026678,-0.00042507,0.0,0 STARLINK-3705,1 52103U 22029R   22187.58334491 -.00042507  00000-0 -26678-2 0  9994,2 52103  53.2162 344.0727 0001638  61.1256 134.8486 15.08849315  1300,6917.852,95.437,540.85,538.5840000000002,0.0
52103.0,STARLINK-3705,PAYLOAD,2022-07-06 19:29:40,15.08833038,0.0001781999999999,53.2175,343.0440000000001,60.9564,299.1607,0.00011719,1.577e-05,0.0,0 STARLINK-3705,1 52103U 22029R   22187.81226914  .00001577  00000-0  11719-3 0  9991,2 52103  53.2175 343.0440 0001782  60.9564 299.1607 15.08833038 18206,6917.901999999999,95.438,540.999,538.534,0.0
52103.0,STARLINK-3705,PAYLOAD,2022-07-07 14:00:01,15.08852185,0.0001656,53.2156,339.5837,60.3702,170.3606,-0.0014002,-0.00022511,0.0,0 STARLINK-3705,1 52103U 22029R   22188.58334491 -.00022511  00000-0 -14002-2 0  9996,2 52103  53.2156 339.5837 0001656  60.3702 170.3606 15.08852185  1309,6917.843000000003,95.437,540.854,538.563,0.0
52103.0,STARLINK-3705,PAYLOAD,2022-07-07 22:00:00,15.08831772,0.0001725,53.2153,338.088,53.9017,188.4304,0.0019542,0.00030943,0.0,0 STARLINK-3705,1 52103U 22029R   22188.91667824  .00030943  00000-0  19542-2 0  9992,2 52103  53.2153 338.0880 0001725  53.9017 188.4304 15.08831772  1306,6917.906,95.438,540.964,538.577,0.0
52103.0,STARLINK-3705,PAYLOAD,2022-07-08 12:49:39,15.08860796,0.0001696,53.217,335.3121,59.8177,300.2983,0.00017079,2.433e-05,0.0,0 STARLINK-3705,1 52103U 22029R   22189.53448976  .00002433  00000-0  17079-3 0  9993,2 52103  53.2170 335.3121 0001696  59.8177 300.2983 15.08860796 18462,6917.816999999999,95.436,540.855,538.509,0.0
52103.0,STARLINK-3705,PAYLOAD,2022-07-08 22:00:01,15.08872156,0.0001693,53.2152,333.5982,50.057,227.2183,0.00020885,3.04e-05,0.0,0 STARLINK-3705,1 52103U 22029R   22189.91668981  .00003040  00000-0  20885-3 0  9999,2 52103  53.2152 333.5982 0001693  50.0570 227.2183 15.08872156  1302,6917.781999999997,95.436,540.818,538.476,0.0
52103.0,STARLINK-3705,PAYLOAD,2022-07-09 06:00:00,15.08840053,0.0001588,53.2155,332.0998,57.9124,230.932,-0.00091956,-0.00014893,0.0,0 STARLINK-3705,1 52103U 22029R   22190.25001157 -.00014893  00000-0 -91956-3 0  9991,2 52103  53.2155 332.0998 0001588  57.9124 230.9320 15.08840053 18561,6917.88,95.438,540.844,538.6469999999998,0.0
52103.0,STARLINK-3705,PAYLOAD,2022-07-09 14:00:01,15.0882391,0.0001743,53.2157,330.6045,56.8854,243.543,-0.0045936,-0.00072628,0.0,0 STARLINK-3705,1 52103U 22029R   22190.58334491 -.00072628  00000-0 -45936-2 0  9993,2 52103  53.2157 330.6045 0001743  56.8854 243.5430 15.08823910  1300,6917.93,95.439,541.0,538.589,0.0
52103.0,STARLINK-3705,PAYLOAD,2022-07-09 20:00:01,15.08754818,0.000187,53.2157,329.483,53.3758,165.7221,0.0034729999999999,0.0005528999999999,0.0,0 STARLINK-3705,1 52103U 22029R   22190.83334491  .00055290  00000-0  34730-2 0  9995,2 52103  53.2157 329.4830 0001870  53.3758 165.7221 15.08754818  1307,6918.141,95.443,541.299,538.712,0.0
52103.0,STARLINK-3705,PAYLOAD,2022-07-10 14:00:01,15.0883698,0.0001730999999999,53.2161,326.1154,55.0789,279.9605,-0.0010504,-0.00016965,0.0,0 STARLINK-3705,1 52103U 22029R   22191.58334491 -.00016965  00000-0 -10504-2 0  9999,2 52103  53.2161 326.1154 0001731  55.0789 279.9605 15.08836980 18767,6917.89,95.438,540.952,538.557,0.0
52103.0,STARLINK-3705,PAYLOAD,2022-07-10 22:00:00,15.08837365,0.0001761,53.2159,324.6192,50.7051,295.9153,0.00037238,5.643e-05,0.0,0 STARLINK-3705,1 52103U 22029R   22191.91667824  .00005643  00000-0  37238-3 0  9998,2 52103  53.2159 324.6192 0001761  50.7051 295.9153 15.08837365  1302,6917.888000000001,95.438,540.972,538.535,0.0
52103.0,STARLINK-3705,PAYLOAD,2022-07-11 06:00:00,15.08817813,0.000161,53.2163,323.1211,58.4337,299.789,0.0036238,0.00057823,0.0,0 STARLINK-3705,1 52103U 22029R   22192.25001157  .00057823  00000-0  36238-2 0  9992,2 52103  53.2163 323.1211 0001610  58.4337 299.7890 15.08817813 18863,6917.948,95.439,540.927,538.6990000000002,0.0
52103.0,STARLINK-3705,PAYLOAD,2022-07-11 14:00:01,15.08862266,0.0001728,53.2165,321.6261,54.521,315.2924,-0.0010166,-0.00016441,0.0,0 STARLINK-3705,1 52103U 22029R   22192.58334491 -.00016441  00000-0 -10166-2 0  9993,2 52103  53.2165 321.6261 0001728  54.5210 315.2924 15.08862266  1305,6917.812,95.436,540.873,538.482,0.0
52103.0,STARLINK-3705,PAYLOAD,2022-07-11 22:00:00,15.08876978,0.0001704,53.2162,320.1296,49.7813,331.6406,-0.0027088,-0.00043184,0.0,0 STARLINK-3705,1 52103U 22029R   22192.91667824 -.00043184  00000-0 -27088-2 0  9994,2 52103  53.2162 320.1296 0001704  49.7813 331.6406 15.08876978 18976,6917.767,95.435,540.811,538.4540000000002,0.0
52103.0,STARLINK-3705,PAYLOAD,2022-07-12 14:00:01,15.08869563,0.0001561999999999,53.2165,317.1369,49.9555,354.7064,-0.0030914,-0.00049192,0.0,0 STARLINK-3705,1 52103U 22029R   22193.58334491 -.00049192  00000-0 -30914-2 0  9996,2 52103  53.2165 317.1369 0001562  49.9555 354.7064 15.08869563 19073,6917.79,95.436,540.736,538.5740000000002,0.0
52103.0,STARLINK-3705,PAYLOAD,2022-07-12 22:00:00,15.08856118,0.0001549,53.2161,315.6403,45.6244,10.6457,1.189e-05,-9.9e-07,0.0,0 STARLINK-3705,1 52103U 22029R   22193.91667824 -.00000099  00000-0  11890-4 0  9998,2 52103  53.2161 315.6403 0001549  45.6244  10.6457 15.08856118  1307,6917.831,95.437,540.768,538.625,0.0
52103.0,STARLINK-3705,PAYLOAD,2022-07-13 14:00:01,15.08846575,0.0001547,53.2162,312.6479,50.8838,28.6044,-0.0031674,-0.00050354,0.0,0 STARLINK-3705,1 52103U 22029R   22194.58334491 -.00050354  00000-0 -31674-2 0  9993,2 52103  53.2162 312.6479 0001547  50.8838  28.6044 15.08846575 19220,6917.86,95.437,540.795,538.655,0.0
52103.0,STARLINK-3705,PAYLOAD,2022-07-13 22:00:00,15.08841398,0.0001558,53.2158,311.1514,47.8003,43.2612,-0.0034779,-0.00055217,0.0,0 STARLINK-3705,1 52103U 22029R   22194.91667824 -.00055217  00000-0 -34779-2 0  9991,2 52103  53.2158 311.1514 0001558  47.8003  43.2612 15.08841398  1303,6917.876,95.437,540.819,538.663,0.0
52103.0,STARLINK-3705,PAYLOAD,2022-07-14 06:00:00,15.08783031,0.0001466,53.2158,309.6538,57.6119,45.0237,0.0030283,0.00048162,0.0,0 STARLINK-3705,1 52103U 22029R   22195.25001157  .00048162  00000-0  30283-2 0  9995,2 52103  53.2158 309.6538 0001466  57.6119  45.0237 15.08783031 19329,6918.055,95.441,540.934,538.905,0.0
52103.0,STARLINK-3705,PAYLOAD,2022-07-14 14:00:01,15.08809209,0.000161,53.2156,308.1594,52.6627,61.51300000000001,-0.00065264,-0.00010651,0.0,0 STARLINK-3705,1 52103U 22029R   22195.58334491 -.00010651  00000-0 -65264-3 0  9993,2 52103  53.2156 308.1594 0001610  52.6627  61.5130 15.08809209  1303,6917.975,95.44,540.953,538.726,0.0
